GLOBALSTAR M068 [-]     
1 32266U 07048D   23244.43931194 -.00000052  00000+0  29061-3 0  9995
2 32266  51.9879 138.0426 0001144  99.5177  71.3341 12.62765390735120
GLOBALSTAR M079 [+]     
1 37188U 10054A   23243.70451397 -.00000078  00000+0  14595-3 0  9999
2 37188  52.0065 335.1838 0000446 101.5105  17.3831 12.62267261593673
GLOBALSTAR M074 [+]     
1 37189U 10054B   23244.49972412 -.00000073  00000+0  17278-3 0  9999
2 37189  52.0037 332.1872 0000650 104.9037 269.3170 12.62269276594456
GLOBALSTAR M076 [+]     
1 37190U 10054C   23244.52563334 -.00000085  00000+0  10712-3 0  9993
2 37190  52.0049 332.2177 0000700  53.0764 320.1810 12.62260407594462
GLOBALSTAR M077 [+]     
1 37191U 10054D   23244.54316771 -.00000071  00000+0  18449-3 0  9997
2 37191  52.0069 288.8349 0000487 107.7045  43.8214 12.62260538595219
GLOBALSTAR M075 [+]     
1 37192U 10054E   23244.15222645 -.00000098  00000+0  30994-4 0  9990
2 37192  51.9970  15.9740 0000559  88.3939 326.4765 12.62260632593651
GLOBALSTAR M073 [+]     
1 37193U 10054F   23244.06270354 -.00000072  00000+0  17676-3 0  9994
2 37193  52.0057 289.5705 0000400 109.6867 257.8396 12.62267051595147
GLOBALSTAR M083 [+]     
1 37739U 11033A   23244.34194983 -.00000105  00000+0 -78088-5 0  9996
2 37739  51.9840 238.3432 0000228 146.6738 351.4046 12.62268670564514
GLOBALSTAR M088 [+]     
1 37740U 11033B   23244.05033983 -.00000075  00000+0  15927-3 0  9994
2 37740  51.9727 145.2741 0000323  44.3420 327.6436 12.62265060559957
GLOBALSTAR M091 [+]     
1 37741U 11033C   23244.33636346 -.00000079  00000+0  13954-3 0  9990
2 37741  51.9990 106.7866 0000405  64.8703 106.8941 12.62265938560743
GLOBALSTAR M085 [+]     
1 37742U 11033D   23244.00762867 -.00000096  00000+0  44624-4 0  9991
2 37742  51.9871  59.4032 0000581  89.7941  88.3099 12.62266685561442
GLOBALSTAR M081 [+]     
1 37743U 11033E   23244.47415094 -.00000095  00000+0  49307-4 0  9992
2 37743  51.9961  60.3665 0000533  65.3093 313.3066 12.62270660561545
GLOBALSTAR M089 [+]     
1 37744U 11033F   23244.15170983 -.00000108  00000+0 -22641-4 0  9991
2 37744  51.9953  15.7001 0000847  78.8716  93.5471 12.62266293562213
GLOBALSTAR M084 [+]     
1 38040U 11080A   23244.05674639 -.00000103  00000+0  59637-5 0  9999
2 38040  51.9984 242.9323 0000477  68.3012 331.8199 12.62265341540214
GLOBALSTAR M080 [+]     
1 38041U 11080B   23244.26195097 -.00000104  00000+0 -22867-5 0  9996
2 38041  52.0039 243.6833 0000513  44.7382 328.8572 12.62264079540220
GLOBALSTAR M082 [+]     
1 38042U 11080C   23244.38244326 -.00000116  00000+0 -70272-4 0  9995
2 38042  52.0060 198.6925 0000422 164.0659 337.2386 12.62270221540973
GLOBALSTAR M092 [+]     
1 38043U 11080D   23244.09146924 -.00000076  00000+0  15647-3 0  9997
2 38043  52.0077 289.9226 0000725  92.7163 285.8976 12.62272011539434
GLOBALSTAR M090 [+]     
1 38044U 11080E   23244.25066314 -.00000115  00000+0 -60999-4 0  9996
2 38044  51.9870 193.7465 0000141  65.7056  76.4780 12.62267136540941
GLOBALSTAR M086 [+]     
1 38045U 11080F   23244.36275764 -.00000110  00000+0 -34233-4 0  9997
2 38045  51.9882 193.9039 0001026 331.5525 201.0545 12.62269809540968
GLOBALSTAR M097 [+]     
1 39072U 13005A   23244.03482514 -.00000074  00000+0  16765-3 0  9991
2 39072  52.0039 108.7868 0000390  68.7677 291.3231 12.62270394488156
GLOBALSTAR M093 [+]     
1 39073U 13005B   23244.00819471 -.00000076  00000+0  15734-3 0  9992
2 39073  51.9804 103.2179 0000233  43.7467 316.3418 12.62266335488140
GLOBALSTAR M094 [+]     
1 39074U 13005C   23243.84988469 -.00000107  00000+0 -19320-4 0  9990
2 39074  51.9983  17.4268 0000560  93.2612 266.8319 12.62266987489614
GLOBALSTAR M096 [+]     
1 39075U 13005D   23244.49640164 -.00000099  00000+0  26539-4 0  9999
2 39075  52.0074  63.4595 0000463  81.9346 278.1573 12.62268206488963
GLOBALSTAR M078 [+]     
1 39076U 13005E   23244.15301351  .00000007  00000+0  61841-3 0  9997
2 39076  51.9865 149.9052 0000967 139.2306 220.8633 12.62271600487401
GLOBALSTAR M095 [+]     
1 39077U 13005F   23244.10074488 -.00000075  00000+0  15872-3 0  9990
2 39077  51.9792 147.5900 0000353 147.8032 212.2856 12.62268272487400
GLOBALSTAR M087 [+]     
1 52888U 22064A   23244.40592097 -.00000079  00000+0  94202-4 0  9993
2 52888  51.9750 138.8168 0009608 353.1664   6.9105 13.37551631 58746
